SCD 1                   
1 22490U 93009B   26179.96351939  .00000391  00000+0  55735-4 0  9999
2 22490  24.9683 134.8620 0041637 262.5652 148.5955 14.46122970762822
TECHSAT 1B (GO-32)      
1 25397U 98043D   26180.49739138  .00000059  00000+0  45590-4 0  9991
2 25397  99.0072 173.5667 0001674 140.3327 219.7973 14.24430746453081
SCD 2                   
1 25504U 98060A   26179.82577831  .00000369  00000+0  52139-4 0  9996
2 25504  24.9967   0.3849 0016551 245.9046 136.6933 14.45529945462019
DLR-TUBSAT              
1 25757U 99029B   26180.55588191  .00000091  00000+0  34232-4 0  9991
2 25757  98.6700 176.4670 0013370 316.2460  43.7674 14.52429805435042
TERRA                   
1 25994U 99068A   26180.56876391  .00000383  00000+0  86946-4 0  9993
2 25994  97.9450 229.6238 0002535 155.4896   5.5244 14.61112539411414
MAROC-TUBSAT            
1 27004U 01056D   26180.48769382 -.00000026  00000+0  22903-4 0  9997
2 27004  99.8087 357.5793 0020581 110.7758 309.5097 13.70262978227874
AQUA                    
1 27424U 02022A   26180.51824992  .00000775  00000+0  16377-3 0  9997
2 27424  98.4283 150.0479 0000719  69.9480  40.8911 14.62176214285073
SHIYAN-1 (SY-1)         
1 28220U 04012A   26179.79547273  .00012463  00000+0  38059-3 0  9993
2 28220  97.8696 258.6195 0004604 350.1825   9.9326 15.34050733212875
AURA                    
1 28376U 04026A   26180.51629221  .00000745  00000+0  16049-3 0  9991
2 28376  98.3422 137.0720 0001160  83.9352 276.1981 14.61346892168018
IRS-P5 (CARTOSAT-1)     
1 28649U 05017A   26180.49325498  .00001437  00000+0  15035-3 0  9994
2 28649  97.5305 202.9995 0002195  65.2896 294.8551 14.91080940145650
SINAH 1                 
1 28893U 05043D   26180.49187714  .00000319  00000+0  69946-4 0  9990
2 28893  98.2875 314.8872 0013401 234.6763 125.3186 14.64165754102321
RESURS-DK 1             
1 29228U 06021A   26180.46258758  .00002192  00000+0  12901-3 0  9993
2 29228  69.9340 307.7770 0006710 285.9548  74.0878 15.13266643104435
ARIRANG-2 (KOMPSAT-2)   
1 29268U 06031A   26180.52580412  .00000304  00000+0  65574-4 0  9998
2 29268  97.8304   4.3754 0015441  38.7920  45.3052 14.64667621 63288
LAPAN-TUBSAT            
1 29709U 07001A   26180.50983052  .00000876  00000+0  10676-3 0  9997
2 29709  98.1340 180.0119 0012940 140.0099 220.2070 14.85964709 52983
HAIYANG-1B              
1 31113U 07010A   26180.52067266  .00000086  00000+0  48506-4 0  9998
2 31113  98.3500 161.8878 0013845 159.7008 200.4729 14.31029867  2407
COSMO-SKYMED 1          
1 31598U 07023A   26180.49963699  .00002186  00000+0  19439-3 0  9995
2 31598  97.8857  12.4594 0001632  85.7547 274.3860 14.97164362 31631
TERRASAR-X              
1 31698U 07026A   26180.50909414  .00000464  00000+0  25267-4 0  9990
2 31698  97.4453 188.0412 0001827  86.2627 273.8816 15.19149675 55096
WORLDVIEW-1 (WV-1)      
1 32060U 07041A   26180.50199367  .00005467  00000+0  22598-3 0  9990
2 32060  97.3892 300.0697 0001136 327.4180  32.6987 15.24398218 44750
YAOGAN-3                
1 32289U 07055A   26180.54442848  .00001608  00000+0  16901-3 0  9991
2 32289  97.8148 210.2998 0001658  76.6448 283.4955 14.90825238  7712
COSMO-SKYMED 2          
1 32376U 07059A   26180.51546984  .00000413  00000+0  58426-4 0  9997
2 32376  97.8887   3.9346 0001335  89.6475 270.4891 14.82155239  3831
CARTOSAT-2A             
1 32783U 08021A   26180.49288377  .00001110  00000+0  15594-3 0  9998
2 32783  97.7631 228.7814 0013305  73.2281 287.0390 14.79257612980623
HUANJING 1A (HJ-1A)     
1 33320U 08041A   26180.50546666  .00001158  00000+0  14471-3 0  9993
2 33320  97.6679 165.8672 0020574  96.9840 263.3716 14.84013528960230
HUANJING 1B (HJ-1B)     
1 33321U 08041B   26180.54761931  .00001155  00000+0  14563-3 0  9991
2 33321  97.6517 169.0426 0037155 140.6227 219.7699 14.83339631960245
GEOEYE 1                
1 33331U 08042A   26180.44843523  .00000460  00000+0  95447-4 0  9999
2 33331  98.1335 254.2281 0005091  34.5997 325.5536 14.64636917951944
THEOS                   
1 33396U 08049A   26180.50998784  .00000227  00000+0  12618-3 0  9993
2 33396  98.5571 237.3936 0001165  81.1024 279.0285 14.20134969919712
COSMO-SKYMED 3          
1 33412U 08054A   26180.55981318  .00001995  00000+0  13729-3 0  9995
2 33412  97.8266  39.3353 0014781 221.0725 138.9390 15.07021566958805
YAOGAN-4                
1 33446U 08061A   26180.37779176  .00001052  00000+0  13515-3 0  9994
2 33446  97.9308 113.7982 0015166  36.0659 324.1575 14.83223557947475
GOSAT (IBUKI)           
1 33492U 09002A   26180.27478093 -.00000060  00000+0 -20353-5 0  9994
2 33492  98.0904 291.2054 0001231  80.0678 280.0666 14.67536834933237
DEIMOS-1                
1 35681U 09041A   26180.53083900  .00000569  00000+0  91120-4 0  9998
2 35681  97.7408 337.2238 0002314 114.7203 245.4248 14.75249703908701
DUBAISAT-1              
1 35682U 09041B   26180.36657249  .00000925  00000+0  14444-3 0  9992
2 35682  98.0065 313.4916 0011109  38.3092 321.8904 14.75143089906899
